GLOBAL-33               
1 66554U 25267A   26057.97457392  .00014370  00000+0  43685-3 0  9997
2 66554  42.0209 336.2106 0007848 237.9926 122.0150 15.33783821 15100
STARLINK-35699          
1 66557U 25268A   26057.95840741  .00024518  00000+0  89690-3 0  9994
2 66557  43.0013  48.0963 0000599 231.7858 128.2940 15.27602894 16310
STARLINK-35695          
1 66558U 25268B   26058.01994646  .00031760  00000+0  11578-2 0  9993
2 66558  43.0038  47.6963 0001427 236.2659 123.8057 15.27604163 16325
STARLINK-35419          
1 66559U 25268C   26058.25963917  .00022658  00000+0  82974-3 0  9992
2 66559  42.9967  46.0488 0000650 246.6937 113.3847 15.27604021 16369
STARLINK-35411          
1 66560U 25268D   26058.25706669  .00021565  00000+0  79030-3 0  9998
2 66560  43.0046  46.0288 0000727 250.3917 109.6857 15.27604880 16366
STARLINK-35305          
1 66561U 25268E   26058.24935924  .00024174  00000+0  88464-3 0  9996
2 66561  42.9975  45.9723 0000345 145.3786 214.7088 15.27597231 16366
STARLINK-35579          
1 66562U 25268F   26058.25321630  .00020562  00000+0  75455-3 0  9994
2 66562  42.9972  46.0003 0000875 273.1947  86.8804 15.27584348 16363
STARLINK-35437          
1 66563U 25268G   26058.24550493  .00005499  00000+0  20921-3 0  9995
2 66563  42.9964  45.9435 0001817 274.8533  85.2111 15.27577681 16364
STARLINK-35358          
1 66564U 25268H   26056.99930984  .00020718  00000+0  75974-3 0  9992
2 66564  43.0025  52.9283 0002272 273.5805  86.4787 15.27602673 16179
STARLINK-35893          
1 66565U 25268J   26058.23779425  .00034181  00000+0  12444-2 0  9994
2 66565  43.0000  45.8812 0000725 224.5970 135.4823 15.27618977 16363
STARLINK-35871          
1 66566U 25268K   26058.23523662  .00015466  00000+0  57141-3 0  9994
2 66566  43.0003  45.8606 0000992 265.1329  94.9410 15.27520042 16369
STARLINK-35825          
1 66567U 25268L   26058.23136774  .00025495  00000+0  93236-3 0  9997
2 66567  43.0022  45.8306 0001008 251.0002 109.0741 15.27595161 16368
STARLINK-35803          
1 66568U 25268M   26058.22621508  .00022307  00000+0  81662-3 0  9990
2 66568  43.0063  45.7981 0001764 296.1223  63.9447 15.27623324 16360
STARLINK-35835          
1 66569U 25268N   26058.02749772  .00025739  00000+0  94084-3 0  9997
2 66569  43.0038  46.8808 0001177 210.6176 149.4607 15.27607290 16338
STARLINK-35834          
1 66570U 25268P   26058.02507682  .00028893  00000+0  10546-2 0  9995
2 66570  43.0019  47.7340 0001154 232.9107 127.1639 15.27603285 16323
STARLINK-35836          
1 66571U 25268Q   26057.95584295  .00022263  00000+0  81573-3 0  9996
2 66571  43.0012  48.0756 0000325 279.8398  80.2417 15.27595301 16314
STARLINK-35870          
1 66572U 25268R   26058.01480047  .00025506  00000+0  93252-3 0  9995
2 66572  43.0050  47.6574 0002282 286.6039  73.4562 15.27602287 16320
STARLINK-35650          
1 66573U 25268S   26058.27248886  .00027234  00000+0  99506-3 0  9995
2 66573  43.0022  46.1461 0001538 270.9547  89.1128 15.27595091 16362
STARLINK-35812          
1 66574U 25268T   26058.26863631  .00013381  00000+0  49500-3 0  9993
2 66574  43.0028  46.1161 0001745 280.9180  79.1475 15.27572008 16367
STARLINK-35810          
1 66575U 25268U   26058.26476737  .00021827  00000+0  79946-3 0  9992
2 66575  43.0020  46.0854 0001711 262.5023  97.5634 15.27616151 16362
STARLINK-35814          
1 66576U 25268V   26058.26092672  .00029981  00000+0  10946-2 0  9998
2 66576  43.0021  46.0542 0002130 280.4276  79.6335 15.27580312 16361
STARLINK-35815          
1 66577U 25268W   26058.25449644  .00030278  00000+0  11045-2 0  9995
2 66577  43.0006  46.0052 0001113 268.3129  91.7595 15.27604679 16369
STARLINK-35743          
1 66578U 25268X   26058.25064200  .00024734  00000+0  90472-3 0  9999
2 66578  43.0019  45.9771 0001415 263.1406  96.9284 15.27602658 16363
STARLINK-35868          
1 66579U 25268Y   26058.24678772  .00022467  00000+0  82283-3 0  9996
2 66579  42.9982  45.9520 0000227 158.2162 201.8699 15.27605593 16364
STARLINK-35872          
1 66580U 25268Z   26058.24293219  .00025860  00000+0  94525-3 0  9999
2 66580  42.9980  45.9187 0000844 257.5814 102.4944 15.27604849 16367
STARLINK-35744          
1 66581U 25268AA  26058.23908053  .00016621  00000+0  61218-3 0  9996
2 66581  43.0016  45.8903 0001398 272.4821  87.5871 15.27579173 16367
STARLINK-35746          
1 66582U 25268AB  26058.23266420  .00025639  00000+0  93783-3 0  9993
2 66582  43.0016  45.8397 0001635 282.6496  77.4173 15.27585490 16362
STARLINK-35941          
1 66583U 25268AC  26058.22879485  .00039350  00000+0  14304-2 0  9990
2 66583  43.0050  45.8109 0001343 258.5981 101.4720 15.27613866 16364
STARLINK-35939          
1 66584U 25268AD  26058.22494297  .00023712  00000+0  86780-3 0  9998
2 66584  43.0041  45.7811 0001262 266.4541  93.6166 15.27603552 16361
STARLINK-35963          
1 66585U 25268AE  26058.01865605  .00027539  00000+0  10057-2 0  9995
2 66585  43.0037  47.6834 0001960 290.7939  69.2703 15.27607514 16323
