OBJECT_NAME,OBJECT_ID,EPOCH,MEAN_MOTION,ECCENTRICITY,INCLINATION,RA_OF_ASC_NODE,ARG_OF_PERICENTER,MEAN_ANOMALY,EPHEMERIS_TYPE,CLASSIFICATION_TYPE,NORAD_CAT_ID,ELEMENT_SET_NO,REV_AT_EPOCH,BSTAR,MEAN_MOTION_DOT,MEAN_MOTION_DDOT
GLOBAL-33,2025-267A,2026-02-26T23:23:23.186688,15.33783821,.00078487,42.0209,336.2106,237.9926,122.0150,0,U,66554,999,1510,.43685337E-3,.1437E-3,0
STARLINK-35699,2025-268A,2026-02-26T23:00:06.400224,15.27602894,.00005993,43.0013,48.0963,231.7858,128.2940,0,U,66557,999,1631,.8969016E-3,.24518E-3,0
STARLINK-35695,2025-268B,2026-02-27T00:28:43.374144,15.27604163,.00014274,43.0038,47.6963,236.2659,123.8057,0,U,66558,999,1632,.11578421E-2,.3176E-3,0
STARLINK-35419,2025-268C,2026-02-27T06:13:52.824288,15.27604021,.00006505,42.9967,46.0488,246.6937,113.3847,0,U,66559,999,1636,.82974466E-3,.22658E-3,0
STARLINK-35411,2025-268D,2026-02-27T06:10:10.562016,15.27604880,.00007276,43.0046,46.0288,250.3917,109.6857,0,U,66560,999,1636,.79029997E-3,.21565E-3,0
STARLINK-35305,2025-268E,2026-02-27T05:59:04.638336,15.27597231,.00003454,42.9975,45.9723,145.3786,214.7088,0,U,66561,999,1636,.88464488E-3,.24174E-3,0
STARLINK-35579,2025-268F,2026-02-27T06:04:37.888320,15.27584348,.00008756,42.9972,46.0003,273.1947,86.8804,0,U,66562,999,1636,.7545509E-3,.20562E-3,0
STARLINK-35437,2025-268G,2026-02-27T05:53:31.625952,15.27577681,.00018171,42.9964,45.9435,274.8533,85.2111,0,U,66563,999,1636,.20920839E-3,.5499E-4,0
STARLINK-35358,2025-268H,2026-02-25T23:59:00.370176,15.27602673,.0002272,43.0025,52.9283,273.5805,86.4787,0,U,66564,999,1617,.75974E-3,.20718E-3,0
STARLINK-35893,2025-268J,2026-02-27T05:42:25.423200,15.27618977,.00007256,43.0000,45.8812,224.5970,135.4823,0,U,66565,999,1636,.12444116E-2,.34181E-3,0
STARLINK-35871,2025-268K,2026-02-27T05:38:44.443968,15.27520042,.00009924,43.0003,45.8606,265.1329,94.9410,0,U,66566,999,1636,.57141334E-3,.15466E-3,0
STARLINK-35825,2025-268L,2026-02-27T05:33:10.172736,15.27595161,.00010084,43.0022,45.8306,251.0002,109.0741,0,U,66567,999,1636,.93235893E-3,.25495E-3,0
STARLINK-35803,2025-268M,2026-02-27T05:25:44.982912,15.27623324,.00017648,43.0063,45.7981,296.1223,63.9447,0,U,66568,999,1636,.81662368E-3,.22307E-3,0
STARLINK-35835,2025-268N,2026-02-27T00:39:35.803008,15.27607290,.00011772,43.0038,46.8808,210.6176,149.4607,0,U,66569,999,1633,.94083724E-3,.25739E-3,0
STARLINK-35834,2025-268P,2026-02-27T00:36:06.637248,15.27603285,.00011548,43.0019,47.7340,232.9107,127.1639,0,U,66570,999,1632,.10546223E-2,.28893E-3,0
STARLINK-35836,2025-268Q,2026-02-26T22:56:24.830880,15.27595301,.00003252,43.0012,48.0756,279.8398,80.2417,0,U,66571,999,1631,.81572999E-3,.22263E-3,0
STARLINK-35870,2025-268R,2026-02-27T00:21:18.760608,15.27602287,.00022823,43.0050,47.6574,286.6039,73.4562,0,U,66572,999,1632,.93252028E-3,.25506E-3,0
STARLINK-35650,2025-268S,2026-02-27T06:32:23.037504,15.27595091,.00015387,43.0022,46.1461,270.9547,89.1128,0,U,66573,999,1636,.99505796E-3,.27234E-3,0
STARLINK-35812,2025-268T,2026-02-27T06:26:50.177184,15.27572008,.00017458,43.0028,46.1161,280.9180,79.1475,0,U,66574,999,1636,.4950025E-3,.13381E-3,0
STARLINK-35810,2025-268U,2026-02-27T06:21:15.900768,15.27616151,.00017115,43.0020,46.0854,262.5023,97.5634,0,U,66575,999,1636,.79945539E-3,.21827E-3,0
STARLINK-35814,2025-268V,2026-02-27T06:15:44.068608,15.27580312,.00021302,43.0021,46.0542,280.4276,79.6335,0,U,66576,999,1636,.10945661E-2,.29981E-3,0
STARLINK-35815,2025-268W,2026-02-27T06:06:28.492416,15.27604679,.00011131,43.0006,46.0052,268.3129,91.7595,0,U,66577,999,1636,.11044688E-2,.30278E-3,0
STARLINK-35743,2025-268X,2026-02-27T06:00:55.468800,15.27602658,.00014157,43.0019,45.9771,263.1406,96.9284,0,U,66578,999,1636,.90471602E-3,.24734E-3,0
STARLINK-35868,2025-268Y,2026-02-27T05:55:22.459008,15.27605593,.00002279,42.9982,45.9520,158.2162,201.8699,0,U,66579,999,1636,.82282946E-3,.22467E-3,0
STARLINK-35872,2025-268Z,2026-02-27T05:49:49.341216,15.27604849,.00008444,42.9980,45.9187,257.5814,102.4944,0,U,66580,999,1636,.94524906E-3,.2586E-3,0
STARLINK-35744,2025-268AA,2026-02-27T05:44:16.557792,15.27579173,.00013986,43.0016,45.8903,272.4821,87.5871,0,U,66581,999,1636,.61217536E-3,.16621E-3,0
STARLINK-35746,2025-268AB,2026-02-27T05:35:02.186880,15.27585490,.00016351,43.0016,45.8397,282.6496,77.4173,0,U,66582,999,1636,.93783124E-3,.25639E-3,0
STARLINK-35941,2025-268AC,2026-02-27T05:29:27.875040,15.27613866,.0001343,43.0050,45.8109,258.5981,101.4720,0,U,66583,999,1636,.14304027E-2,.3935E-3,0
STARLINK-35939,2025-268AD,2026-02-27T05:23:55.072608,15.27603552,.00012623,43.0041,45.7811,266.4541,93.6166,0,U,66584,999,1636,.86780369E-3,.23712E-3,0
STARLINK-35963,2025-268AE,2026-02-27T00:26:51.882720,15.27607514,.000196,43.0037,47.6834,290.7939,69.2703,0,U,66585,999,1632,.10056886E-2,.27539E-3,0
